GLOBALSTAR M063         
1 26081U 00008A   25310.84244053 -.00000096  00000+0 -19046-3 0  9995
2 26081  51.9934  95.8637 0004154 215.2414 292.7810 11.86176978174501
GLOBALSTAR M062         
1 26082U 00008B   25310.66248831 -.00000011  00000+0  62193-3 0  9991
2 26082  51.9867  36.7998 0007438  61.2429 104.6196 12.43476721514345
GLOBALSTAR M060         
1 26083U 00008C   25310.58578542 -.00000202  00000+0 -10998-2 0  9996
2 26083  52.0047  17.1803 0003451  63.1428  88.7430 12.17667142169717
GLOBALSTAR M064         
1 26084U 00008D   25310.60788146 -.00000044  00000+0  56437-3 0  9995
2 26084  52.0013 193.6350 0001715  10.0461 350.0405 11.88537887184035
GLOBALSTAR M065         
1 31571U 07020A   25310.33479411 -.00000037  00000+0  37267-3 0  9997
2 31571  51.9868 153.6122 0009003 262.7480 268.0128 12.62012905851354
GLOBALSTAR M069         
1 31573U 07020C   25310.64323545 -.00000038  00000+0  50126-3 0  9999
2 31573  52.0008 162.0105 0002793  62.0295 333.4366 12.23463111851563
GLOBALSTAR M072         
1 31574U 07020D   25310.54503590 -.00000064  00000+0  27997-3 0  9998
2 31574  51.9951 332.9796 0000977 235.3339 292.5270 11.91652892848430
GLOBALSTAR M071         
1 31576U 07020F   25310.63331130  .00000014  00000+0  10357-2 0  9994
2 31576  52.0046 191.6730 0001833  55.7736 322.3953 12.18261306512304
